OBJECT_NAME,OBJECT_ID,EPOCH,MEAN_MOTION,ECCENTRICITY,INCLINATION,RA_OF_ASC_NODE,ARG_OF_PERICENTER,MEAN_ANOMALY,EPHEMERIS_TYPE,CLASSIFICATION_TYPE,NORAD_CAT_ID,ELEMENT_SET_NO,REV_AT_EPOCH,BSTAR,MEAN_MOTION_DOT,MEAN_MOTION_DDOT
ONEWEB-0277,2021-060AE,2026-06-15T16:18:21.550176,13.16593767,.00019019,87.9090,229.0834,101.4410,258.6934,0,U,48995,999,23936,-.11762972E-3,-.32E-6,0
ONEWEB-0278,2021-060AF,2026-06-16T04:50:41.451360,13.16592982,.000227,87.9099,228.9696,100.3504,259.7883,0,U,48996,999,23956,.31146E-5,.14E-6,0
ONEWEB-0279,2021-060AG,2026-06-15T21:44:22.587072,13.16594720,.0001784,87.9097,229.0268,97.2118,262.9215,0,U,48997,999,23945,.12746E-3,.62E-6,0
ONEWEB-0280,2021-060AH,2026-06-16T03:34:20.016192,13.16593895,.0002117,87.9097,228.9828,107.7785,252.3577,0,U,48998,999,23942,.3571E-3,.149E-5,0
ONEWEB-0281,2021-060AJ,2026-06-16T03:42:19.288224,13.16595780,.0002103,87.9100,228.9768,98.6361,261.5009,0,U,48999,999,23949,.4961E-3,.203E-5,0
ONEWEB-0282,2021-060AK,2026-06-16T04:25:36.969888,13.16592802,.0001969,87.9098,228.9792,101.4228,258.7124,0,U,49000,999,23947,.96973E-4,.5E-6,0
ONEWEB-0283,2021-060AL,2026-06-16T04:09:40.578048,13.16594492,.0001857,87.9097,228.9809,97.4649,262.6692,0,U,49001,999,23948,.31309E-3,.133E-5,0
ONEWEB-0284,2021-060AM,2026-06-16T04:00:33.870816,13.16594881,.0002235,87.9097,228.9754,105.2994,254.8384,0,U,49002,999,23946,.44729E-3,.184E-5,0
ONEWEB-0285,2021-075A,2026-06-16T01:39:36.890208,13.12443024,.0001749,87.8946,350.8841,91.9181,268.2148,0,U,49075,999,23506,-.10167E-2,-.353E-5,0
ONEWEB-0286,2021-075B,2026-06-15T23:24:01.823040,13.12441930,.0001978,87.8936,350.9199,86.4145,273.7210,0,U,49076,999,23440,.56454E-3,.216E-5,0
ONEWEB-0287,2021-075C,2026-06-16T02:29:06.321696,13.17649216,.0002243,87.9133,6.0817,84.4318,275.7069,0,U,49077,999,23348,.7E-4,.4E-6,0
ONEWEB-0288,2021-075D,2026-06-16T00:39:51.435360,13.12444109,.0002026,87.8945,350.8859,92.4211,267.7149,0,U,49078,999,23503,.94948E-3,.354E-5,0
ONEWEB-0289,2021-075E,2026-06-16T01:35:26.841696,13.17649874,.000183,87.9137,6.1057,100.5281,259.6057,0,U,49079,999,23405,.80764E-4,.44E-6,0
ONEWEB-0290,2021-075F,2026-06-16T00:56:46.701888,13.17648551,.0001812,87.9142,6.0830,104.4847,255.6485,0,U,49080,999,23346,.17257E-4,.2E-6,0
ONEWEB-0291,2021-075G,2026-06-16T02:24:15.285024,13.17648951,.0002163,87.9136,6.0782,93.6743,266.4636,0,U,49081,999,23346,.46811E-4,.31E-6,0
ONEWEB-0293,2021-075H,2026-06-15T23:21:59.701824,13.17648529,.000188,87.9132,6.1069,92.7316,267.4031,0,U,49082,999,23347,.40169E-4,.28E-6,0
ONEWEB-0294,2021-075J,2026-06-16T00:49:37.058016,13.12443877,.0001822,87.8947,350.8882,101.4868,258.6465,0,U,49083,999,23442,.9857E-3,.367E-5,0
ONEWEB-0295,2021-075K,2026-06-15T23:20:47.137920,13.17648351,.0002178,87.9132,6.1111,89.5729,270.5652,0,U,49084,999,23343,.66473E-4,.39E-6,0
ONEWEB-0296,2021-075L,2026-06-16T00:20:19.795200,13.12444719,.0002146,87.8951,350.8996,94.0450,266.0923,0,U,49085,999,23442,-.4125E-3,-.136E-5,0
ONEWEB-0297,2021-075M,2026-06-15T23:14:28.118400,13.12443286,.0001907,87.8936,350.9197,89.8545,270.2802,0,U,49086,999,23502,.10715E-2,.398E-5,0
ONEWEB-0298,2021-075N,2026-06-15T23:27:03.570624,13.17647376,.0001912,87.9132,6.1083,84.1508,275.9842,0,U,49087,999,23346,.37906E-4,.28E-6,0
ONEWEB-0299,2021-075P,2026-06-15T23:29:17.668608,13.17649575,.0002021,87.9142,6.0881,86.3511,273.7852,0,U,49088,999,23344,.11098E-3,.56E-6,0
ONEWEB-0300,2021-075Q,2026-06-16T00:53:15.899712,13.12444445,.000183,87.8948,350.8852,77.9906,282.1427,0,U,49089,999,23505,.11857E-2,.439E-5,0
ONEWEB-0301,2021-075R,2026-06-16T00:30:04.891680,13.12445945,.0001694,87.8946,350.8868,80.2191,279.9129,0,U,49090,999,23441,.94138E-4,.47E-6,0
ONEWEB-0302,2021-075S,2026-06-16T00:10:34.441248,13.12443748,.0001942,87.8949,350.9014,99.8767,260.2581,0,U,49091,999,23439,-.88018E-3,-.304E-5,0
ONEWEB-0304,2021-075T,2026-06-16T02:31:32.229696,13.17649429,.0002016,87.9133,6.0855,87.8973,272.2389,0,U,49092,999,23343,-.39726E-4,-.3E-7,0
ONEWEB-0305,2021-075U,2026-06-16T02:21:49.186080,13.17649816,.0002244,87.9141,6.0709,86.4047,273.7341,0,U,49093,999,23346,-.67119E-4,-.13E-6,0
ONEWEB-0308,2021-075V,2026-06-16T01:50:35.546784,13.12443135,.0001786,87.8948,350.8794,90.4405,269.6928,0,U,49094,999,23441,-.12332E-2,-.431E-5,0
ONEWEB-0309,2021-075W,2026-06-16T00:37:19.653888,13.17648576,.0001934,87.9134,6.0940,102.3742,257.7606,0,U,49095,999,23342,-.54718E-5,.11E-6,0
ONEWEB-0310,2021-075X,2026-06-16T00:22:45.888096,13.12444933,.0001802,87.8939,350.9134,91.2191,268.9144,0,U,49096,999,23503,-.43456E-3,-.144E-5,0
ONEWEB-0311,2021-075Y,2026-06-16T00:47:03.437088,13.17650247,.0002261,87.9136,6.0922,82.0769,278.0619,0,U,49097,999,23347,-.18458E-5,.12E-6,0
