ONEWEB-0277             
1 48995U 21060AE  26166.67941609 -.00000032  00000+0 -11763-3 0  9994
2 48995  87.9090 229.0834 0001901 101.4410 258.6934 13.16593767239368
ONEWEB-0278             
1 48996U 21060AF  26167.20186865  .00000014  00000+0  31146-5 0  9997
2 48996  87.9099 228.9696 0002270 100.3504 259.7883 13.16592982239569
ONEWEB-0279             
1 48997U 21060AG  26166.90581698  .00000062  00000+0  12746-3 0  9993
2 48997  87.9097 229.0268 0001784  97.2118 262.9215 13.16594720239454
ONEWEB-0280             
1 48998U 21060AH  26167.14884278  .00000149  00000+0  35710-3 0  9993
2 48998  87.9097 228.9828 0002117 107.7785 252.3577 13.16593895239426
ONEWEB-0281             
1 48999U 21060AJ  26167.15438991  .00000203  00000+0  49610-3 0  9997
2 48999  87.9100 228.9768 0002103  98.6361 261.5009 13.16595780239492
ONEWEB-0282             
1 49000U 21060AK  26167.18445567  .00000050  00000+0  96973-4 0  9996
2 49000  87.9098 228.9792 0001969 101.4228 258.7124 13.16592802239479
ONEWEB-0283             
1 49001U 21060AL  26167.17338632  .00000133  00000+0  31309-3 0  9993
2 49001  87.9097 228.9809 0001857  97.4649 262.6692 13.16594492239487
ONEWEB-0284             
1 49002U 21060AM  26167.16705869  .00000184  00000+0  44729-3 0  9999
2 49002  87.9097 228.9754 0002235 105.2994 254.8384 13.16594881239460
ONEWEB-0285             
1 49075U 21075A   26167.06917697 -.00000353  00000+0 -10167-2 0  9996
2 49075  87.8946 350.8841 0001749  91.9181 268.2148 13.12443024235069
ONEWEB-0286             
1 49076U 21075B   26166.97502110  .00000216  00000+0  56454-3 0  9992
2 49076  87.8936 350.9199 0001978  86.4145 273.7210 13.12441930234401
ONEWEB-0287             
1 49077U 21075C   26167.10354539  .00000040  00000+0  70000-4 0  9998
2 49077  87.9133   6.0817 0002243  84.4318 275.7069 13.17649216233487
ONEWEB-0288             
1 49078U 21075D   26167.02767865  .00000354  00000+0  94948-3 0  9994
2 49078  87.8945 350.8859 0002026  92.4211 267.7149 13.12444109235036
ONEWEB-0289             
1 49079U 21075E   26167.06628289  .00000044  00000+0  80764-4 0  9993
2 49079  87.9137   6.1057 0001830 100.5281 259.6057 13.17649874234052
ONEWEB-0290             
1 49080U 21075F   26167.03942942  .00000020  00000+0  17257-4 0  9998
2 49080  87.9142   6.0830 0001812 104.4847 255.6485 13.17648551233465
ONEWEB-0291             
1 49081U 21075G   26167.10017691  .00000031  00000+0  46811-4 0  9991
2 49081  87.9136   6.0782 0002163  93.6743 266.4636 13.17648951233461
ONEWEB-0293             
1 49082U 21075H   26166.97360766  .00000028  00000+0  40169-4 0  9996
2 49082  87.9132   6.1069 0001880  92.7316 267.4031 13.17648529233470
ONEWEB-0294             
1 49083U 21075J   26167.03445669  .00000367  00000+0  98570-3 0  9995
2 49083  87.8947 350.8882 0001822 101.4868 258.6465 13.12443877234425
ONEWEB-0295             
1 49084U 21075K   26166.97276780  .00000039  00000+0  66473-4 0  9998
2 49084  87.9132   6.1111 0002178  89.5729 270.5652 13.17648351233436
ONEWEB-0296             
1 49085U 21075L   26167.01411800 -.00000136  00000+0 -41250-3 0  9994
2 49085  87.8951 350.8996 0002146  94.0450 266.0923 13.12444719234420
ONEWEB-0297             
1 49086U 21075M   26166.96838100  .00000398  00000+0  10715-2 0  9993
2 49086  87.8936 350.9197 0001907  89.8545 270.2802 13.12443286235027
ONEWEB-0298             
1 49087U 21075N   26166.97712466  .00000028  00000+0  37906-4 0  9994
2 49087  87.9132   6.1083 0001912  84.1508 275.9842 13.17647376233467
ONEWEB-0299             
1 49088U 21075P   26166.97867672  .00000056  00000+0  11098-3 0  9999
2 49088  87.9142   6.0881 0002021  86.3511 273.7852 13.17649575233442
ONEWEB-0300             
1 49089U 21075Q   26167.03698958  .00000439  00000+0  11857-2 0  9994
2 49089  87.8948 350.8852 0001830  77.9906 282.1427 13.12444445235050
ONEWEB-0301             
1 49090U 21075R   26167.02088995  .00000047  00000+0  94138-4 0  9999
2 49090  87.8946 350.8868 0001694  80.2191 279.9129 13.12445945234416
ONEWEB-0302             
1 49091U 21075S   26167.00734307 -.00000304  00000+0 -88018-3 0  9990
2 49091  87.8949 350.9014 0001942  99.8767 260.2581 13.12443748234396
ONEWEB-0304             
1 49092U 21075T   26167.10523414 -.00000003  00000+0 -39726-4 0  9996
2 49092  87.9133   6.0855 0002016  87.8973 272.2389 13.17649429233436
ONEWEB-0305             
1 49093U 21075U   26167.09848595 -.00000013  00000+0 -67119-4 0  9993
2 49093  87.9141   6.0709 0002244  86.4047 273.7341 13.17649816233461
ONEWEB-0308             
1 49094U 21075V   26167.07680031 -.00000431  00000+0 -12332-2 0  9990
2 49094  87.8948 350.8794 0001786  90.4405 269.6928 13.12443135234415
ONEWEB-0309             
1 49095U 21075W   26167.02592192  .00000011  00000+0 -54718-5 0  9996
2 49095  87.9134   6.0940 0001934 102.3742 257.7606 13.17648576233421
ONEWEB-0310             
1 49096U 21075X   26167.01580889 -.00000144  00000+0 -43456-3 0  9999
2 49096  87.8939 350.9134 0001802  91.2191 268.9144 13.12444933235034
ONEWEB-0311             
1 49097U 21075Y   26167.03267867  .00000012  00000+0 -18458-5 0  9999
2 49097  87.9136   6.0922 0002261  82.0769 278.0619 13.17650247233475
